EUTELSAT 53A            
1 40277U 14064A   26158.21349668  .00000112  00000+0  00000+0 0  9998
2 40277   0.0158 292.8628 0000741 242.7912 209.8258  1.00270738 41469
GSAT-16                 
1 40332U 14078A   26158.21393001  .00000099  00000+0  00000+0 0  9999
2 40332   0.0638  93.6142 0007830 351.1584 302.9364  1.00271795 42006
DIRECTV 14              
1 40333U 14078B   26158.19003021 -.00000111  00000+0  00000+0 0  9993
2 40333   0.0092 348.3328 0000466 191.5531  44.8845  1.00270265 41942
YAMAL 401               
1 40345U 14082A   26157.85359110  .00000000  00000+0  00000+0 0  9992
2 40345   0.0116 319.1920 0000565 279.6182  53.7004  1.00271056 41817
ASTRA 2G                
1 40364U 14089A   26158.20855666  .00000164  00000+0  00000+0 0  9998
2 40364   0.0495  10.9927 0005050  48.9481 298.9473  1.00270643 41863
FENGYUN 2G              
1 40367U 14090A   26157.79492472 -.00000289  00000+0  00000+0 0  9997
2 40367   5.6125  72.9393 0003330 154.5057  53.5102  1.00277925 41891
INMARSAT 5-F2           
1 40384U 15005A   26158.17643154 -.00000271  00000+0  00000+0 0  9992
2 40384   0.0179 353.7534 0000625 211.5898  58.7517  1.00270492 40894
ABS-3A                  
1 40424U 15010A   26158.20240329  .00000000  00000+0  00000+0 0  9993
2 40424   0.0300  50.4256 0001729 340.6343 294.3905  1.00266363 41276
EUTELSAT 115 WEST B     
1 40425U 15010B   26158.25153152 -.00000010  00000+0  00000+0 0  9998
2 40425   0.0035 146.1928 0000160 358.6035  86.5109  1.00268804 41297
EXPRESS-AM7             
1 40505U 15012A   26158.21089667  .00000165  00000+0  00000+0 0  9994
2 40505   0.0206  59.4550 0003244  23.6615 288.4239  1.00273293 40904
BEIDOU-3S IGSO-1S       
1 40549U 15019A   26157.86275140 -.00000164  00000+0  00000+0 0  9992
2 40549  49.2162 295.5865 0038559 191.1956 171.3970  1.00253110 40971
THOR 7                  
1 40613U 15022A   26158.20283662  .00000006  00000+0  00000+0 0  9999
2 40613   0.0042   9.2097 0002699  68.5919 250.1790  1.00271263 40711
TURKMENALEM52E/MONACOSAT
1 40617U 15023A   26158.21332334  .00000118  00000+0  00000+0 0  9990
2 40617   0.0459  83.5535 0003042 350.7335 310.1470  1.00272725 40749
DIRECTV 15              
1 40663U 15026A   26158.25991174 -.00000088  00000+0  00000+0 0  9998
2 40663   0.0180 359.6834 0000403 230.4335  16.2473  1.00271734 40366
SKY MEXICO-1            
1 40664U 15026B   26158.19232529 -.00000220  00000+0  00000+0 0  9992
2 40664   0.0158  49.6664 0002251  43.8665 152.5101  1.00271898 40356
METEOSAT-11 (MSG-4)     
1 40732U 15034A   26158.20482997  .00000078  00000+0  00000+0 0  9995
2 40732   3.1774  71.1654 0001678   5.2854 262.3074  1.00277204  7116
STAR ONE C4             
1 40733U 15034B   26158.26798007 -.00000251  00000+0  00000+0 0  9998
2 40733   0.0214 359.8504 0002461  71.7562 210.5305  1.00269485 39914
WGS F7 (USA 263)        
1 40746U 15036A   26158.16636747  .00000031  00000+0  00000+0 0  9990
2 40746   0.0080   6.3299 0000467 316.2805 167.8300  1.00270613 39773
INTELSAT 34 (IS-34)     
1 40874U 15039A   26158.16780808 -.00000271  00000+0  00000+0 0  9990
2 40874   0.0096 325.8721 0000227  47.3393 247.2900  1.00270712 39532
EUTELSAT 8 WEST B       
1 40875U 15039B   26158.13014683 -.00000052  00000+0  00000+0 0  9996
2 40875   0.0635 353.0497 0003854  80.1429 221.1995  1.00271371 39558
GSAT-6                  
1 40880U 15041A   26158.14808692 -.00000146  00000+0  00000+0 0  9991
2 40880   1.8945  82.7137 0003389 349.1059 319.5685  1.00271681 39499
INMARSAT 5-F3           
1 40882U 15042A   26158.23828271  .00000065  00000+0  00000+0 0  9998
2 40882   0.0174 357.2364 0000349  74.6454  89.1840  1.00271053 39474
MUOS-4                  
1 40887U 15044A   26158.13447851 -.00000080  00000+0  00000+0 0  9993
2 40887   4.3104  42.1758 0059573   4.7277 332.0844  1.00272120 39454
TJS-1                   
1 40892U 15046A   26158.29423752 -.00000141  00000+0  00000+0 0  9990
2 40892   0.2968  84.9974 0005797 354.2729  77.4102  1.00272751 39470
BEIDOU-3S IGSO-2S       
1 40938U 15053A   26157.75858402 -.00000140  00000+0  00000+0 0  9992
2 40938  49.2391 258.9076 0064957 191.9372 173.1063  1.00261954 39252
SKY MUSTER 1 (NBN1A)    
1 40940U 15054A   26158.23074267  .00000000  00000+0  00000+0 0  9993
2 40940   0.0221 332.0448 0001848 116.4578  30.4475  1.00268921 39162
ARSAT 2                 
1 40941U 15054B   26158.18691873 -.00000211  00000+0  00000+0 0  9991
2 40941   0.0444  69.6023 0002118 355.7693 176.5223  1.00270595 39207
MORELOS 3               
1 40946U 15056A   26158.25187818 -.00000030  00000+0  00000+0 0  9994
2 40946   3.1792  14.8187 0001660 353.3737 225.0259  1.00271280 39187
APSTAR-9                
1 40982U 15059A   26158.23108934 -.00000252  00000+0  00000+0 0  9993
2 40982   0.0151 351.1924 0002223 188.6104 301.0452  1.00270743 39027
TURKSAT 4B              
1 40984U 15060A   26158.12892082  .00000129  00000+0  00000+0 0  9991
2 40984   0.0175   0.7166 0002519  63.8148 287.4490  1.00267897 38990
