OBJECT_NAME,OBJECT_ID,EPOCH,MEAN_MOTION,ECCENTRICITY,INCLINATION,RA_OF_ASC_NODE,ARG_OF_PERICENTER,MEAN_ANOMALY,EPHEMERIS_TYPE,CLASSIFICATION_TYPE,NORAD_CAT_ID,ELEMENT_SET_NO,REV_AT_EPOCH,BSTAR,MEAN_MOTION_DOT,MEAN_MOTION_DDOT
EUTELSAT 53A,2014-064A,2026-06-07T05:07:26.113152,1.00270738,.0000741,0.0158,292.8628,242.7912,209.8258,0,U,40277,999,4146,0,.112E-5,0
GSAT-16,2014-078A,2026-06-07T05:08:03.552864,1.00271795,.00078304,0.0638,93.6142,351.1584,302.9364,0,U,40332,999,4200,0,.99E-6,0
DIRECTV 14,2014-078B,2026-06-07T04:33:38.610144,1.00270265,.00004669,0.0092,348.3328,191.5531,44.8845,0,U,40333,999,4194,0,-.111E-5,0
YAMAL 401,2014-082A,2026-06-06T20:29:10.271040,1.00271056,.00005657,0.0116,319.1920,279.6182,53.7004,0,U,40345,999,4181,0,0,0
ASTRA 2G,2014-089A,2026-06-07T05:00:19.295424,1.00270643,.00050502,0.0495,10.9927,48.9481,298.9473,0,U,40364,999,4186,0,.164E-5,0
FENGYUN 2G,2014-090A,2026-06-06T19:04:41.495808,1.00277925,.00033304,5.6125,72.9393,154.5057,53.5102,0,U,40367,999,4189,0,-.289E-5,0
INMARSAT 5-F2,2015-005A,2026-06-07T04:14:03.685056,1.00270492,.00006259,0.0179,353.7534,211.5898,58.7517,0,U,40384,999,4089,0,-.271E-5,0
ABS-3A,2015-010A,2026-06-07T04:51:27.644256,1.00266363,.00017294,0.0300,50.4256,340.6343,294.3905,0,U,40424,999,4127,0,0,0
EUTELSAT 115 WEST B,2015-010B,2026-06-07T06:02:12.323328,1.00268804,.00001601,0.0035,146.1928,358.6035,86.5109,0,U,40425,999,4129,0,-.1E-6,0
EXPRESS-AM7,2015-012A,2026-06-07T05:03:41.472288,1.00273293,.00032449,0.0206,59.4550,23.6615,288.4239,0,U,40505,999,4090,0,.165E-5,0
BEIDOU-3S IGSO-1S,2015-019A,2026-06-06T20:42:21.720960,1.00253110,.00385588,49.2162,295.5865,191.1956,171.3970,0,U,40549,999,4097,0,-.164E-5,0
THOR 7,2015-022A,2026-06-07T04:52:05.083968,1.00271263,.00026991,0.0042,9.2097,68.5919,250.1790,0,U,40613,999,4071,0,.6E-7,0
TURKMENALEM52E/MONACOSAT,2015-023A,2026-06-07T05:07:11.136576,1.00272725,.00030421,0.0459,83.5535,350.7335,310.1470,0,U,40617,999,4074,0,.118E-5,0
DIRECTV 15,2015-026A,2026-06-07T06:14:16.374336,1.00271734,.00004034,0.0180,359.6834,230.4335,16.2473,0,U,40663,999,4036,0,-.88E-6,0
SKY MEXICO-1,2015-026B,2026-06-07T04:36:56.905920,1.00271898,.00022507,0.0158,49.6664,43.8665,152.5101,0,U,40664,999,4035,0,-.22E-5,0
METEOSAT-11 (MSG-4),2015-034A,2026-06-07T04:54:57.309408,1.00277204,.00016786,3.1774,71.1654,5.2854,262.3074,0,U,40732,999,711,0,.78E-6,0
STAR ONE C4,2015-034B,2026-06-07T06:25:53.478048,1.00269485,.0002461,0.0214,359.8504,71.7562,210.5305,0,U,40733,999,3991,0,-.251E-5,0
WGS F7 (USA 263),2015-036A,2026-06-07T03:59:34.149408,1.00270613,.00004671,0.0080,6.3299,316.2805,167.8300,0,U,40746,999,3977,0,.31E-6,0
INTELSAT 34 (IS-34),2015-039A,2026-06-07T04:01:38.618112,1.00270712,.0000227,0.0096,325.8721,47.3393,247.2900,0,U,40874,999,3953,0,-.271E-5,0
EUTELSAT 8 WEST B,2015-039B,2026-06-07T03:07:24.686976,1.00271371,.00038542,0.0635,353.0497,80.1429,221.1995,0,U,40875,999,3955,0,-.52E-6,0
GSAT-6,2015-041A,2026-06-07T03:33:14.710752,1.00271681,.00033885,1.8945,82.7137,349.1059,319.5685,0,U,40880,999,3949,0,-.146E-5,0
INMARSAT 5-F3,2015-042A,2026-06-07T05:43:07.626144,1.00271053,.00003499,0.0174,357.2364,74.6454,89.1840,0,U,40882,999,3947,0,.65E-6,0
MUOS-4,2015-044A,2026-06-07T03:13:38.943264,1.00272120,.00595727,4.3104,42.1758,4.7277,332.0844,0,U,40887,999,3945,0,-.8E-6,0
TJS-1,2015-046A,2026-06-07T07:03:42.121728,1.00272751,.00057975,0.2968,84.9974,354.2729,77.4102,0,U,40892,999,3947,0,-.141E-5,0
BEIDOU-3S IGSO-2S,2015-053A,2026-06-06T18:12:21.659328,1.00261954,.00649575,49.2391,258.9076,191.9372,173.1063,0,U,40938,999,3925,0,-.14E-5,0
SKY MUSTER 1 (NBN1A),2015-054A,2026-06-07T05:32:16.166688,1.00268921,.00018481,0.0221,332.0448,116.4578,30.4475,0,U,40940,999,3916,0,0,0
ARSAT 2,2015-054B,2026-06-07T04:29:09.778272,1.00270595,.00021188,0.0444,69.6023,355.7693,176.5223,0,U,40941,999,3920,0,-.211E-5,0
MORELOS 3,2015-056A,2026-06-07T06:02:42.274752,1.00271280,.000166,3.1792,14.8187,353.3737,225.0259,0,U,40946,999,3918,0,-.3E-6,0
APSTAR-9,2015-059A,2026-06-07T05:32:46.118976,1.00270743,.00022233,0.0151,351.1924,188.6104,301.0452,0,U,40982,999,3902,0,-.252E-5,0
TURKSAT 4B,2015-060A,2026-06-07T03:05:38.759712,1.00267897,.00025195,0.0175,0.7166,63.8148,287.4490,0,U,40984,999,3899,0,.129E-5,0
